ONEWEB-0300             
1 49089U 21075Q   24181.55975111  .00000360  00000+0  96654-3 0  9996
2 49089  87.8945 133.5647 0002446  84.3578 275.7829 13.12440934141077
ONEWEB-0301             
1 49090U 21075R   24181.39106951  .00000504  00000+0  13664-2 0  9997
2 49090  87.8944 133.6013 0002367  83.6366 276.5032 13.12445207140415
ONEWEB-0302             
1 49091U 21075S   24181.60677535 -.00000419  00000+0 -11990-2 0  9990
2 49091  87.8946 133.5568 0001818  79.9858 280.1475 13.12445417140422
ONEWEB-0304             
1 49092U 21075T   24181.42002509  .00000116  00000+0  26588-3 0  9996
2 49092  87.9172 148.7639 0001781  85.9685 274.1650 13.17647978139052
ONEWEB-0305             
1 49093U 21075U   24181.41194902  .00000107  00000+0  24323-3 0  9990
2 49093  87.9172 148.7520 0001802  96.0892 264.0445 13.17651753139088
ONEWEB-0308             
1 49094U 21075V   24181.60028649 -.00000236  00000+0 -69180-3 0  9991
2 49094  87.8945 133.5573 0002139  81.6048 278.5323 13.12442545140431
ONEWEB-0309             
1 49095U 21075W   24181.41679782  .00000126  00000+0  29115-3 0  9991
2 49095  87.9173 148.7561 0001677  71.0602 289.0711 13.17647896139051
ONEWEB-0310             
1 49096U 21075X   24181.38620538  .00000403  00000+0  10851-2 0  9997
2 49096  87.8954 133.6086 0001982  77.5386 282.5964 13.12444392141032
